format  = 'OEF1.1'       ! file format
rectype = 'ML'           ! record type (1L/ML)
refsys  = ECLM J2000     ! default reference system
END_OF_HEADER
2004XK3
! Equinoctial elements: a, e*sin(LP), e*cos(LP), tan(i/2)*sin(LN), tan(i/2)*cos(LN), mean long.
 EQU   1.21157602181962E+00  0.001446386626390  0.255164058579371  0.010607421766190  0.006598433688432  49.1765462461401
 MJD     53349.05575838 TDT
 MAG  24.445  0.150
! RMS    6.70730E-04   1.00434E-05   5.20896E-04   1.74548E-05   1.19646E-05   5.46709E-02
! EIG   1.28858E-08   1.69611E-08   1.66465E-07   2.49688E-07   1.08744E-05   1.27754E-03
! WEA  -0.52498   0.00620  -0.40773  -0.01366  -0.00937   0.74688
 COV   4.498786097805328E-07 -5.268552646456601E-09  3.493567974820356E-07
 COV   1.170414956111097E-08  8.024365222453152E-09 -3.666451610924220E-05
 COV   1.008699420627281E-10 -4.129135123233065E-09 -1.391939462282087E-10
 COV  -9.482103629042192E-11  4.349574639278674E-07  2.713323334687502E-07
 COV   9.091003822637166E-09  6.232199910551225E-09 -2.847750802702036E-05
 COV   3.046712700865372E-10  2.088258127149400E-10 -9.541757000434268E-07
 COV   1.431516416101702E-10 -6.540957044809919E-07  2.988904523398248E-03
 NOR   1.664450854088637E+14 -5.440807279036214E+14  6.212516457618354E+14
 NOR   2.641597029910028E+13 -1.044359354682267E+14  8.025640635297669E+12
 NOR   1.841992533563008E+15 -2.180734776137545E+15 -6.619765585484526E+12
 NOR   5.752355696325415E+13 -2.770922489018326E+13  2.674987789516972E+15
 NOR  -7.348016135789408E+13  2.234687869206707E+14  3.345020233879619E+13
 NOR   2.662995840377013E+14 -8.950887783668944E+14 -4.859643128579246E+11
 NOR   3.217990544147720E+15  1.258160853034931E+12  4.213069449248980E+11